[{"OBJECT_NAME":"OSCAR 31","OBJECT_ID":"1988-074B","EPOCH":"2026-03-07T14:30:55.935648","MEAN_MOTION":13.42597645,"ECCENTRICITY":0.00945122,"INCLINATION":90.0434,"RA_OF_ASC_NODE":20.8965,"ARG_OF_PERICENTER":359.6849,"MEAN_ANOMALY":175.1354,"EPHEMERIS_TYPE":0,"CLASSIFICATION_TYPE":"U","NORAD_CAT_ID":19420,"ELEMENT_SET_NO":999,"REV_AT_EPOCH":83789,"BSTAR":0.00020495822,"MEAN_MOTION_DOT":1.28e-6,"MEAN_MOTION_DDOT":0}]
