OSCAR 31                
1 19420U 88074B   26066.60481407  .00000128  00000+0  20496-3 0  9997
2 19420  90.0434  20.8965 0094512 359.6849 175.1354 13.42597645837890
